#aV2024  7 18  0  0  0.00000000     288 DD+AD WGS84 FIT  NGA
## 2323 345600.00000000   300.00000000 60509 0.0000000000000
+   31     2  3  4  5  6  7  8  9 10 11 12 13 14 15 16 17 18
+         19 20 21 22 23 24 25 26 27 28 29 30 31 32  0  0  0
+          0  0  0  0  0  0  0  0  0  0  0  0  0  0  0  0  0
+          0  0  0  0  0  0  0  0  0  0  0  0  0  0  0  0  0
+          0  0  0  0  0  0  0  0  0  0  0  0  0  0  0  0  0
++         2  2  2  2  2  2  2  2  2  2  2  2  2  2  2  2  2
++         2  2  2  2  2  2  2  2  2  2  2  2  2  2  0  0  0
++         0  0  0  0  0  0  0  0  0  0  0  0  0  0  0  0  0
++         0  0  0  0  0  0  0  0  0  0  0  0  0  0  0  0  0
++         0  0  0  0  0  0  0  0  0  0  0  0  0  0  0  0  0
%c cc cc ccc ccc cccc cccc cccc cccc ccccc ccccc ccccc ccccc
%c cc cc ccc ccc cccc cccc cccc cccc ccccc ccccc ccccc ccccc
%f  0.0000000  0.000000000  0.00000000000  0.000000000000000
%f  0.0000000  0.000000000  0.00000000000  0.000000000000000
%i    0    0    0    0      0      0      0      0         0
%i    0    0    0    0      0      0      0      0         0
/*      NGA, ST. LOUIS,MO.                                  
/*   EPHEMERIS COMPUTED FROM 2 DAYS OF DATA                 
/*   EPOCHA v9 SMOOTHER                                     
/*   G2296 IERS2010 SATIGS SATAPC                           
*  2024  7 18 23 30  0.00000000
P  2 -17776.646114  -5198.106368  19624.660376   -396.389231                    
V  2  -9870.106963 -21666.566154 -14743.493361      0.073750                    
P  3 -19672.192323   8169.831510  15625.447025    463.918999                    
V  3  11263.475360 -16766.841029  22822.024826      0.162889                    
P  4 -25943.223857   -402.428984  -5998.187987    406.551633                    
V  4  -7056.134142  -3747.010338  30553.059990      0.077210                    
P  5  13134.174123   7465.116151 -22031.819250   -180.211153                    
V  5 -15829.168217  22480.823499  -1757.743154     -0.013049                    
P  6   4039.138457  24985.793430   7930.319056    153.284187                    
V  6  -5313.523443  -8655.174321  30307.251601     -0.230006                    
P  7  -9844.073586  13666.275103 -19901.800450    -67.299133                    
V  7 -11256.679048 -24147.140408 -11187.877742      0.073851                    
P  8 -25394.451626  -6623.124875  -5487.486956    280.103570                    
V  8   6989.591156  -1875.369200 -30283.740389      0.160393                    
P  9 -19624.278070   8796.504345 -15707.796170    278.629701                    
V  9 -19416.203814  -4208.317301  21966.946914      0.151210                    
P 10   8159.802845 -22521.427536  11314.719940    -69.707993                    
V 10  10271.251758  -9898.749421 -27934.960620     -0.098805                    
P 11  12326.333622  22786.931263  -5978.694620   -707.220375                    
V 11    139.065085   8006.649293  30616.452503     -0.066900                    
P 12  19788.656908  -4391.525332  16858.779328   -523.368920                    
V 12 -13327.633493  17554.453186  19935.527811     -0.030763                    
P 13  19786.061314  13899.993790 -11472.696494    665.428839                    
V 13 -14097.198655  -2148.986146 -27200.868175      0.024396                    
P 14 -11537.929913  22587.916677   7533.791137    452.000209                    
V 14  -8624.079537   5323.449455 -29545.836051      0.088936                    
P 15  25815.662532   3964.095994  -5841.129002    182.632520                    
V 15  -6726.139212   3320.406781 -29919.112782      0.042692                    
P 16 -10007.564928 -11722.722715 -21940.302616   -232.899940                    
V 16  18773.672252 -19540.433642   2345.745997      0.105735                    
P 17  -5870.925047  14272.226819  22049.574549    674.731012                    
V 17 -26379.361100  -5564.475647  -3328.010275     -0.078432                    
P 18   9259.394010 -14345.512546 -20272.231514   -637.929881                    
V 18  10143.641873  23737.820424 -12359.566487     -0.039187                    
P 19   4768.739779  15875.280933  20676.504193    512.370273                    
V 19 -25881.454606  -5809.433520   9944.944699      0.053569                    
P 20   6718.829902  16764.717496 -19458.582491    372.619672                    
V 20 -12736.850500  21341.134867  13793.328718     -0.004007                    
P 21 -18607.620409 -11304.745411  16310.250860    108.057415                    
V 21  -7927.277850 -17878.034253 -20992.584661     -0.023867                    
P 22  -5793.759848  21531.508079  15067.702027    -41.196338                    
V 22 -13800.956599  12125.726894 -22996.537188     -0.045054                    
P 23  16117.182126 -20951.863911   -726.860512    276.966750                    
V 23   1351.351719   2191.210825 -32296.056624      0.088758                    
P 24  18414.780490   7567.906567  17343.349710   -483.661587                    
V 24   8774.777053  21140.609546 -17688.976071     -0.014971                    
P 25  19593.992229 -14878.243607   9330.059352    498.638825                    
V 25  -4979.525629  11806.254572  28526.701083      0.003541                    
P 26   -605.087449 -20991.771538 -16194.279282    117.435159                    
V 26  13508.459044 -15676.920665  20376.746306     -0.069865                    
P 27 -18347.413323 -12895.389725 -14842.717862    -31.428255                    
V 27  18237.820351    728.896648 -23228.300971     -0.008561                    
P 28  -3136.333087 -24409.927397   9977.713297   -336.923734                    
V 28   7404.627434  10599.446444  28229.179032     -0.157640                    
P 29  22487.149260  -4535.132016 -13541.047039   -588.843191                    
V 29  16248.222800   5485.891952  25111.939069      0.019109                    
P 30  -2129.775790  22275.911935 -13948.872749   -355.453003                    
V 30  -9526.508866 -15721.648663 -23663.758794      0.065467                    
P 31 -10294.768198 -24217.046813  -1531.685763   -226.652970                    
V 31   2542.810493  -2783.444447  31777.227200      0.003130                    
P 32   2747.711773 -15035.172647  21931.807916   -611.427517                    
V 32  27080.036127   3736.391075  -1035.565651      0.020854                    
EOF
